DUCHIFAT-1              
1 40021U 14033M   26201.45515877  .00103989  00000+0  78793-3 0  9997
2 40021  98.0409 265.4893 0003399 227.9496 132.1476 15.72052758660962
NANOSATC-BR1            
1 40024U 14033Q   26201.05966085  .00009772  00000+0  31482-3 0  9996
2 40024  98.0707 236.3841 0005139  85.0134 275.1692 15.32422309659013
QB50P1                  
1 40025U 14033R   26201.49323626  .00004584  00000+0  22434-3 0  9996
2 40025  98.0973 214.9866 0010529 109.2595 250.9778 15.18713788658087
DTUSAT-2                
1 40030U 14033W   26201.25708975  .00003490  00000+0  18868-3 0  9991
2 40030  98.0885 201.0957 0009603 117.2472 242.9738 15.15389385657699
QB50P2                  
1 40032U 14033Y   26200.98401997  .00003453  00000+0  18594-3 0  9991
2 40032  98.0770 199.9180 0009191  70.5042 289.7181 15.15543519657639
PERSEUS-M1              
1 40039U 14033AF  26201.35254876  .00000451  00000+0  45953-4 0  9997
2 40039  97.9654 146.0332 0011289 179.4701 180.6533 14.95724944655592
POLYITAN-1              
1 40042U 14033AJ  26201.51911443  .00011343  00000+0  34353-3 0  9992
2 40042  98.0937 230.9614 0007438  48.1858 312.0017 15.34334872658709
TIGRISAT                
1 40043U 14033AK  26201.19515269  .00000811  00000+0  99037-4 0  9992
2 40043  97.7872 350.4597 0048224 327.6805  32.1457 14.85257761650523
CANX-4                  
1 40055U 14034C   26201.45367442  .00000419  00000+0  60997-4 0  9990
2 40055  98.3075  77.9814 0011374 263.9065  96.0851 14.81316174649454
CANX-5                  
1 40056U 14034D   26201.45171887  .00000422  00000+0  61415-4 0  9997
2 40056  98.3078  78.0249 0011380 264.1725  95.8189 14.81333532640263
GONETS-M 10             
1 40063U 14036C   26201.63615822  .00000061  00000+0  36621-3 0  9998
2 40063  82.5114 286.9007 0022846  71.1629 289.1926 12.42946585546408
METEOR-M 2              
1 40069U 14037A   26201.65114483 -.00000291  00000+0 -11362-3 0  9996
2 40069  98.5142 176.2083 0004806 308.7173  51.3575 14.21468841624078
DX1                     
1 40071U 14037C   26201.60235356  .00001235  00000+0  13428-3 0  9999
2 40071  98.3894 165.3380 0007560 152.1404 208.0219 14.90073535651085
UKUBE-1                 
1 40074U 14037F   26201.48265127  .00004817  00000+0  26969-3 0  9990
2 40074  98.4252 208.2664 0003168  79.2263 280.9322 15.13998749653592
GAOFEN-2                
1 40118U 14049A   26201.62195154  .00000945  00000+0  12905-3 0  9993
2 40118  98.0088 265.7947 0008598 119.5482 240.6589 14.80933973644183
BRITE-PL2 (HEWELIUSZ)   
1 40119U 14049B   26201.31086453  .00000947  00000+0  92665-4 0  9995
2 40119  97.9121 313.5727 0013829   5.5650 354.5721 14.94694929646390
CBERS 4                 
1 40336U 14079A   26201.63344773  .00000236  00000+0  96624-4 0  9996
2 40336  98.3509 257.4127 0000591  67.1964 292.9285 14.35517694608756
SMAP                    
1 40376U 15003A   26201.58398573  .00000200  00000+0  47670-4 0  9997
2 40376  98.1286 208.2071 0001631  93.0160 267.1229 14.63391753612501
GONETS-M 11             
1 40552U 15020A   26201.57583866  .00000045  00000+0  25349-3 0  9997
2 40552  82.4874  10.1816 0015288 290.7500  69.1941 12.42878650512882
GONETS-M 12             
1 40553U 15020B   26201.54897334 -.00000002  00000+0 -81369-4 0  9993
2 40553  82.4907  11.3309 0014226 274.5372  85.4082 12.42891948512879
GONETS-M 13             
1 40554U 15020C   26201.60350860  .00000023  00000+0  92094-4 0  9997
2 40554  82.4870   9.9023 0012830 258.1107 101.8534 12.42871834512853
DMC3-FM1                
1 40715U 15032A   26201.60959312 -.00000169  00000+0 -13549-4 0  9997
2 40715  97.6419  65.4665 0004430 317.9674  42.1201 14.85770016594877
DMC3-FM2                
1 40716U 15032B   26201.56416062 -.00000222  00000+0 -19636-4 0  9996
2 40716  97.6470  67.0194 0005083 322.2064  37.8794 14.85774759594862
DMC3-FM3                
1 40717U 15032C   26201.58772992  .00000338  00000+0  44792-4 0  9993
2 40717  97.6521  68.8160 0004250 324.7264  35.3670 14.85765539594879
CARBONITE 1 (CBNT-1)    
1 40718U 15032D   26201.56703933  .00000345  00000+0  47829-4 0  9993
2 40718  97.6529  18.2399 0014356 179.0702 181.0542 14.83674297594298
LILACSAT-2              
1 40908U 15049K   26201.60611031  .00011772  00000+0  19368-3 0  9996
2 40908  97.4627 239.7365 0008620 125.7537 234.4518 15.52481141600936
