OBJECT_NAME,OBJECT_ID,EPOCH,MEAN_MOTION,ECCENTRICITY,INCLINATION,RA_OF_ASC_NODE,ARG_OF_PERICENTER,MEAN_ANOMALY,EPHEMERIS_TYPE,CLASSIFICATION_TYPE,NORAD_CAT_ID,ELEMENT_SET_NO,REV_AT_EPOCH,BSTAR,MEAN_MOTION_DOT,MEAN_MOTION_DDOT
DUCHIFAT-1,2014-033M,2026-07-20T10:55:25.717728,15.72052758,.00033996,98.0409,265.4893,227.9496,132.1476,0,U,40021,999,66096,.78793493E-3,.103989E-2,0
NANOSATC-BR1,2014-033Q,2026-07-20T01:25:54.697440,15.32422309,.00051396,98.0707,236.3841,85.0134,275.1692,0,U,40024,999,65901,.31481997E-3,.9772E-4,0
QB50P1,2014-033R,2026-07-20T11:50:15.612864,15.18713788,.00105298,98.0973,214.9866,109.2595,250.9778,0,U,40025,999,65808,.22433766E-3,.4584E-4,0
DTUSAT-2,2014-033W,2026-07-20T06:10:12.554400,15.15389385,.00096039,98.0885,201.0957,117.2472,242.9738,0,U,40030,999,65769,.18868269E-3,.349E-4,0
QB50P2,2014-033Y,2026-07-19T23:36:59.325408,15.15543519,.00091918,98.0770,199.9180,70.5042,289.7181,0,U,40032,999,65763,.1859428E-3,.3453E-4,0
PERSEUS-M1,2014-033AF,2026-07-20T08:27:40.212864,14.95724944,.00112895,97.9654,146.0332,179.4701,180.6533,0,U,40039,999,65559,.45953268E-4,.451E-5,0
POLYITAN-1,2014-033AJ,2026-07-20T12:27:31.486752,15.34334872,.00074383,98.0937,230.9614,48.1858,312.0017,0,U,40042,999,65870,.34352907E-3,.11343E-3,0
TIGRISAT,2014-033AK,2026-07-20T04:41:01.192416,14.85257761,.00482244,97.7872,350.4597,327.6805,32.1457,0,U,40043,999,65052,.99037235E-4,.811E-5,0
CANX-4,2014-034C,2026-07-20T10:53:17.469888,14.81316174,.00113744,98.3075,77.9814,263.9065,96.0851,0,U,40055,999,64945,.60997136E-4,.419E-5,0
CANX-5,2014-034D,2026-07-20T10:50:28.510368,14.81333532,.001138,98.3078,78.0249,264.1725,95.8189,0,U,40056,999,64026,.61414532E-4,.422E-5,0
GONETS-M 10,2014-036C,2026-07-20T15:16:04.070208,12.42946585,.00228465,82.5114,286.9007,71.1629,289.1926,0,U,40063,999,54640,.36620622E-3,.61E-6,0
METEOR-M 2,2014-037A,2026-07-20T15:37:38.913312,14.21468841,.0004806,98.5142,176.2083,308.7173,51.3575,0,U,40069,999,62407,-.11361875E-3,-.291E-5,0
DX1,2014-037C,2026-07-20T14:27:23.347584,14.90073535,.00075608,98.3894,165.3380,152.1404,208.0219,0,U,40071,999,65108,.13427684E-3,.1235E-4,0
UKUBE-1,2014-037F,2026-07-20T11:35:01.069728,15.13998749,.00031681,98.4252,208.2664,79.2263,280.9322,0,U,40074,999,65359,.26968904E-3,.4817E-4,0
GAOFEN-2,2014-049A,2026-07-20T14:55:36.613056,14.80933973,.00085989,98.0088,265.7947,119.5482,240.6589,0,U,40118,999,64418,.12905468E-3,.945E-5,0
BRITE-PL2 (HEWELIUSZ),2014-049B,2026-07-20T07:27:38.695392,14.94694929,.00138292,97.9121,313.5727,5.5650,354.5721,0,U,40119,999,64639,.92665287E-4,.947E-5,0
CBERS 4,2014-079A,2026-07-20T15:12:09.883872,14.35517694,.00005912,98.3509,257.4127,67.1964,292.9285,0,U,40336,999,60875,.96624005E-4,.236E-5,0
SMAP,2015-003A,2026-07-20T14:00:56.367072,14.63391753,.00016317,98.1286,208.2071,93.0160,267.1229,0,U,40376,999,61250,.47669923E-4,.2E-5,0
GONETS-M 11,2015-020A,2026-07-20T13:49:12.460224,12.42878650,.0015288,82.4874,10.1816,290.7500,69.1941,0,U,40552,999,51288,.25348815E-3,.45E-6,0
GONETS-M 12,2015-020B,2026-07-20T13:10:31.296576,12.42891948,.00142262,82.4907,11.3309,274.5372,85.4082,0,U,40553,999,51287,-.81368918E-4,-.2E-7,0
GONETS-M 13,2015-020C,2026-07-20T14:29:03.143040,12.42871834,.00128307,82.4870,9.9023,258.1107,101.8534,0,U,40554,999,51285,.92094229E-4,.23E-6,0
DMC3-FM1,2015-032A,2026-07-20T14:37:48.845568,14.85770016,.00044308,97.6419,65.4665,317.9674,42.1201,0,U,40715,999,59487,-.13549287E-4,-.169E-5,0
DMC3-FM2,2015-032B,2026-07-20T13:32:23.477568,14.85774759,.00050831,97.6470,67.0194,322.2064,37.8794,0,U,40716,999,59486,-.19635695E-4,-.222E-5,0
DMC3-FM3,2015-032C,2026-07-20T14:06:19.865088,14.85765539,.00042502,97.6521,68.8160,324.7264,35.3670,0,U,40717,999,59487,.44792074E-4,.338E-5,0
CARBONITE 1 (CBNT-1),2015-032D,2026-07-20T13:36:32.198112,14.83674297,.00143562,97.6529,18.2399,179.0702,181.0542,0,U,40718,999,59429,.47828509E-4,.345E-5,0
LILACSAT-2,2015-049K,2026-07-20T14:32:47.930784,15.52481141,.00086201,97.4627,239.7365,125.7537,234.4518,0,U,40908,999,60093,.19367719E-3,.11772E-3,0
